[
   {
      "name": "NOAA 9 [-]",
      "line1": "1 15427U 84123A   21092.85772230  .00000032  00000-0  39212-4 0  9991",
      "line2": "2 15427  98.9855  54.9118 0014530 339.3217  74.2685 14.16127252874253",
      "drg": 3.9212,
      "inc": 98.9855,
      "ran": 54.9118,
      "ecc": 0.001453,
      "aop": 339.3217,
      "man": 74.2685,
      "mmo": 14.16127253,
      "sma": 7216.61695
   },
   {
      "name": "NOAA 10 [-]",
      "line1": "1 16969U 86073A   21092.90674800  .00000011  00000-0  21538-4 0  9998",
      "line2": "2 16969  98.5294  83.2712 0012536 159.6455 230.2241 14.28129090797952",
      "drg": 2.1538,
      "inc": 98.5294,
      "ran": 83.2712,
      "ecc": 0.0012536,
      "aop": 159.6455,
      "man": 230.2241,
      "mmo": 14.28129091,
      "sma": 7176.12835
   },
   {
      "name": "NOAA 11 [-]",
      "line1": "1 19531U 88089A   21092.75812215 -.00000014  00000-0  13760-4 0  9994",
      "line2": "2 19531  98.4064 101.7178 0011435  15.5174 344.6349 14.15270427678483",
      "drg": 1.376,
      "inc": 98.4064,
      "ran": 101.7178,
      "ecc": 0.0011435,
      "aop": 15.5174,
      "man": 344.6349,
      "mmo": 14.15270428,
      "sma": 7219.52935
   },
   {
      "name": "NOAA 12 [-]",
      "line1": "1 21263U 91032A   21092.83568332 -.00000013  00000-0  12552-4 0  9995",
      "line2": "2 21263  98.5069 100.3308 0013538 183.9665 176.1410 14.25936377553938",
      "drg": 1.2552,
      "inc": 98.5069,
      "ran": 100.3308,
      "ecc": 0.0013538,
      "aop": 183.9665,
      "man": 176.141,
      "mmo": 14.25936378,
      "sma": 7183.48312
   },
   {
      "name": "NOAA 13 [-]",
      "line1": "1 22739U 93050A   21092.93912529  .00000001  00000-0  22494-4 0  9990",
      "line2": "2 22739  98.4670  90.8358 0009864 159.1694 200.9883 14.12779666424856",
      "drg": 2.2494,
      "inc": 98.467,
      "ran": 90.8358,
      "ecc": 0.0009864,
      "aop": 159.1694,
      "man": 200.9883,
      "mmo": 14.12779666,
      "sma": 7228.01232
   },
   {
      "name": "NOAA 14 [-]",
      "line1": "1 23455U 94089A   21092.76644000 -.00000027  00000-0  76539-5 0  9995",
      "line2": "2 23455  98.5014 137.0319 0010159 145.0401 215.1442 14.14159431354423",
      "drg": 0.76539,
      "inc": 98.5014,
      "ran": 137.0319,
      "ecc": 0.0010159,
      "aop": 145.0401,
      "man": 215.1442,
      "mmo": 14.14159431,
      "sma": 7223.31008
   },
   {
      "name": "NOAA 15 [B]",
      "line1": "1 25338U 98030A   21092.86935785  .00000024  00000-0  28291-4 0  9998",
      "line2": "2 25338  98.6907 122.0409 0011259 137.0295 223.1766 14.26020168190226",
      "drg": 2.8291,
      "inc": 98.6907,
      "ran": 122.0409,
      "ecc": 0.0011259,
      "aop": 137.0295,
      "man": 223.1766,
      "mmo": 14.26020168,
      "sma": 7183.20173
   },
   {
      "name": "NOAA 16 [-]",
      "line1": "1 26536U 00055A   21092.83193303  .00000000  00000-0  22940-4 0  9997",
      "line2": "2 26536  98.6942 160.4545 0010138 348.7510  11.3435 14.13274424355112",
      "drg": 2.294,
      "inc": 98.6942,
      "ran": 160.4545,
      "ecc": 0.0010138,
      "aop": 348.751,
      "man": 11.3435,
      "mmo": 14.13274424,
      "sma": 7226.32531
   },
   {
      "name": "NOAA 17 [-]",
      "line1": "1 27453U 02032A   21085.97608005  .00000327  00000-0  15796-3 0  9992",
      "line2": "2 27453  98.6151  32.8832 0013225 132.9283 227.3027 14.25050449975143",
      "drg": 15.796,
      "inc": 98.6151,
      "ran": 32.8832,
      "ecc": 0.0013225,
      "aop": 132.9283,
      "man": 227.3027,
      "mmo": 14.2505045,
      "sma": 7186.46004
   },
   {
      "name": "NOAA 18 [B]",
      "line1": "1 28654U 05018A   21092.86990610  .00000079  00000-0  66819-4 0  9992",
      "line2": "2 28654  99.0016 157.4098 0015161 133.4759 226.7676 14.12594248817778",
      "drg": 6.6819,
      "inc": 99.0016,
      "ran": 157.4098,
      "ecc": 0.0015161,
      "aop": 133.4759,
      "man": 226.7676,
      "mmo": 14.12594249,
      "sma": 7228.64481
   },
   {
      "name": "NOAA 19 [+]",
      "line1": "1 33591U 09005A   21092.82590871  .00000033  00000-0  43474-4 0  9991",
      "line2": "2 33591  99.1901 111.6352 0013633 348.7444  11.3419 14.12458287625982",
      "drg": 4.3474,
      "inc": 99.1901,
      "ran": 111.6352,
      "ecc": 0.0013633,
      "aop": 348.7444,
      "man": 11.3419,
      "mmo": 14.12458288,
      "sma": 7229.10868
   },
   {
      "name": "SUOMI NPP [+]",
      "line1": "1 37849U 11061A   21092.87903544  .00000024  00000-0  32000-4 0  9999",
      "line2": "2 37849  98.7316  32.5830 0001387 105.7826 298.6047 14.19555543488699",
      "drg": 3.2,
      "inc": 98.7316,
      "ran": 32.583,
      "ecc": 0.0001387,
      "aop": 105.7826,
      "man": 298.6047,
      "mmo": 14.19555543,
      "sma": 7204.9933
   },
   {
      "name": "NOAA 20 [+]",
      "line1": "1 43013U 17073A   21092.83551732  .00000006  00000-0  23552-4 0  9994",
      "line2": "2 43013  98.7148  32.6509 0000899  98.4068 261.7210 14.19540386174716",
      "drg": 2.3552,
      "inc": 98.7148,
      "ran": 32.6509,
      "ecc": 8.99e-05,
      "aop": 98.4068,
      "man": 261.721,
      "mmo": 14.19540386,
      "sma": 7205.04459
   },
   {
      "name": "STARLINK-24",
      "line1": "1 44238U 19029D   21092.95387264  .00005215  00000-0  28891-3 0  9994",
      "line2": "2 44238  52.9979 332.5577 0001932  82.1446 277.9766 15.15384957101279",
      "drg": 28.891,
      "inc": 52.9979,
      "ran": 332.5577,
      "ecc": 0.0001932,
      "aop": 82.1446,
      "man": 277.9766,
      "mmo": 15.15384957,
      "sma": 6897.94711
   },
   {
      "name": "STARLINK-26",
      "line1": "1 44240U 19029F   21092.78366116  .01091706  59675-3  22077-2 0  9996",
      "line2": "2 44240  52.9863 201.3247 0013280 338.0476  22.0448 15.98938493104793",
      "drg": 220.77,
      "inc": 52.9863,
      "ran": 201.3247,
      "ecc": 0.001328,
      "aop": 338.0476,
      "man": 22.0448,
      "mmo": 15.98938493,
      "sma": 6655.49972
   },
   {
      "name": "STARLINK-61",
      "line1": "1 44249U 19029Q   21092.84515305  .00002395  00000-0  12207-3 0  9993",
      "line2": "2 44249  52.9978 310.6712 0006633 164.2894 195.8308 15.20735496102275",
      "drg": 12.207,
      "inc": 52.9978,
      "ran": 310.6712,
      "ecc": 0.0006633,
      "aop": 164.2894,
      "man": 195.8308,
      "mmo": 15.20735496,
      "sma": 6881.75784
   },
   {
      "name": "STARLINK-71",
      "line1": "1 44252U 19029T   21092.82628683  .00005394  00000-0  28401-3 0  9994",
      "line2": "2 44252  53.0009 335.8816 0002411  60.6326 299.4908 15.17138321101893",
      "drg": 28.401,
      "inc": 53.0009,
      "ran": 335.8816,
      "ecc": 0.0002411,
      "aop": 60.6326,
      "man": 299.4908,
      "mmo": 15.17138321,
      "sma": 6892.63143
   },
   {
      "name": "STARLINK-43",
      "line1": "1 44257U 19029Y   21092.67768907  .00024424  00000-0  61110-3 0  9995",
      "line2": "2 44257  53.0004 239.1086 0001539  75.1469 284.9704 15.39989841103336",
      "drg": 61.11,
      "inc": 53.0004,
      "ran": 239.1086,
      "ecc": 0.0001539,
      "aop": 75.1469,
      "man": 284.9704,
      "mmo": 15.39989841,
      "sma": 6824.27633
   },
   {
      "name": "STARLINK-64",
      "line1": "1 44275U 19029AS  21092.86426149  .00538687  00000-0  55182-2 0  9997",
      "line2": "2 44275  52.9919 252.2435 0001548  74.1233 285.9950 15.62702123104057",
      "drg": 551.82,
      "inc": 52.9919,
      "ran": 252.2435,
      "ecc": 0.0001548,
      "aop": 74.1233,
      "man": 285.995,
      "mmo": 15.62702123,
      "sma": 6757.99252
   },
   {
      "name": "STARLINK-68",
      "line1": "1 44279U 19029AW  21092.82014797  .00123513  00000-0  87904-3 0  9995",
      "line2": "2 44279  52.9968 244.7179 0003852 342.4808  17.6075 15.72988327103404",
      "drg": 87.904,
      "inc": 52.9968,
      "ran": 244.7179,
      "ecc": 0.0003852,
      "aop": 342.4808,
      "man": 17.6075,
      "mmo": 15.72988327,
      "sma": 6728.49873
   },
   {
      "name": "STARLINK-70",
      "line1": "1 44281U 19029AY  21092.88385949  .00045424  00000-0  76964-3 0  9992",
      "line2": "2 44281  52.9982 276.1200 0001613  51.1381 308.9771 15.51101604 34820",
      "drg": 76.964,
      "inc": 52.9982,
      "ran": 276.12,
      "ecc": 0.0001613,
      "aop": 51.1381,
      "man": 308.9771,
      "mmo": 15.51101604,
      "sma": 6791.64551
   },
   {
      "name": "STARLINK-80",
      "line1": "1 44282U 19029AZ  21092.86818407  .00011721  00000-0  40866-3 0  9996",
      "line2": "2 44282  53.0209 270.8148 0004978  63.3526 296.7982 15.30077701102258",
      "drg": 40.866,
      "inc": 53.0209,
      "ran": 270.8148,
      "ecc": 0.0004978,
      "aop": 63.3526,
      "man": 296.7982,
      "mmo": 15.30077701,
      "sma": 6853.71726
   },
   {
      "name": "STARLINK-76",
      "line1": "1 44287U 19029BE  21092.86286331  .00060068  00000-0  96835-3 0  9991",
      "line2": "2 44287  52.9959 265.8440 0001601  15.5422 344.5635 15.52373695103114",
      "drg": 96.835,
      "inc": 52.9959,
      "ran": 265.844,
      "ecc": 0.0001601,
      "aop": 15.5422,
      "man": 344.5635,
      "mmo": 15.52373695,
      "sma": 6787.93474
   },
   {
      "name": "STARLINK-48",
      "line1": "1 44289U 19029BG  21092.80069173 -.00053911  00000-0 -18934-3 0  9995",
      "line2": "2 44289  52.9970 282.7976 0001352  56.3257 303.7896 15.88327555102830",
      "drg": -18.934,
      "inc": 52.997,
      "ran": 282.7976,
      "ecc": 0.0001352,
      "aop": 56.3257,
      "man": 303.7896,
      "mmo": 15.88327555,
      "sma": 6685.10851
   }
]